0 INTELSAT 512
1 16101U 85087A   13281.79199097 -.00000008  00000-0  10000-3 0  9110
2 16101 014.4214 026.5746 0009145 153.5929 206.4546 00.99111174 84394
0 INTELSAT 512
1 16101U 85087A   13283.80985038  .00000027  00000-0  10000-3 0  9123
2 16101 014.4239 026.5521 0009235 154.3351 205.7117 00.99111002 84419
0 INTELSAT 512
1 16101U 85087A   13284.81878153  .00000039  00000-0  10000-3 0  9138
2 16101 014.4256 026.5413 0009224 158.6001 201.4437 00.99111051 84428
0 INTELSAT 512
1 16101U 85087A   13287.84552884  .00000054  00000-0  10000-3 0  9142
2 16101 014.4289 026.5073 0009240 155.7524 204.2801 00.99111565 84451
0 INTELSAT 512
1 16101U 85087A   13290.87224069  .00000036  00000-0  10000-3 0  9151
2 16101 014.4323 026.4735 0009282 155.0307 204.9869 00.99112633 84483
0 INTELSAT 512
1 16101U 85087A   13292.89004770  .00000008  00000-0  10000-3 0  9160
2 16101 014.4350 026.4507 0009176 156.0550 203.9592 00.99113538 84503
0 INTELSAT 512
1 16101U 85087A   13293.89894725 -.00000010  00000-0  10000-3 0  9173
2 16101 014.4365 026.4390 0009324 155.8365 204.1725 00.99113933 84516
